CTC2_L_00400001-01
1 10000U 24118ER  26075.70045139  .00000000  00000+0  00000-0 0  9995
2 10000  70.0000   0.0000 0000000   0.0000   0.0000 12.77881384    10
CTC2_L_00400001-02
1 10001U 26714QE  26075.70045139  .00000000  00000+0  00000-0 0  9990
2 10001  70.0000   0.0000 0000000   0.0000  90.0000 12.77881384    10
CTC2_L_00400001-03
1 10002U 26827BH  26075.70045139  .00000000  00000+0  00000-0 0  9996
2 10002  70.0000   0.0000 0000000   0.0000 180.0000 12.77881384    11
CTC2_L_00400001-04
1 10003U 25918IA  26075.70045139  .00000000  00000+0  00000-0 0  9997
2 10003  70.0000   0.0000 0000000   0.0000 270.0000 12.77881384    12
CTC2_L_00400002-01
1 10004U 23709WY  26075.70045139  .00000000  00000+0  00000-0 0  9994
2 10004  70.0000  12.0000 0000000   0.0000  12.0000 12.77881384    10
CTC2_L_00400002-02
1 10005U 26271YF  26075.70045139  .00000000  00000+0  00000-0 0  9992
2 10005  70.0000  12.0000 0000000   0.0000 102.0000 12.77881384    11
CTC2_L_00400002-03
1 10006U 22923FW  26075.70045139  .00000000  00000+0  00000-0 0  9993
2 10006  70.0000  12.0000 0000000   0.0000 192.0000 12.77881384    11
CTC2_L_00400002-04
1 10007U 22300MG  26075.70045139  .00000000  00000+0  00000-0 0  9993
2 10007  70.0000  12.0000 0000000   0.0000 282.0000 12.77881384    12
CTC2_L_00400003-01
1 10008U 24267MJ  26075.70045139  .00000000  00000+0  00000-0 0  9998
2 10008  70.0000  24.0000 0000000   0.0000  24.0000 12.77881384    10
CTC2_L_00400003-02
1 10009U 23186GK  26075.70045139  .00000000  00000+0  00000-0 0  9998
2 10009  70.0000  24.0000 0000000   0.0000 114.0000 12.77881384    11
CTC2_L_00400003-03
1 10010U 26176HF  26075.70045139  .00000000  00000+0  00000-0 0  9992
2 10010  70.0000  24.0000 0000000   0.0000 204.0000 12.77881384    13
CTC2_L_00400003-04
1 10011U 24218DW  26075.70045139  .00000000  00000+0  00000-0 0  9998
2 10011  70.0000  24.0000 0000000   0.0000 294.0000 12.77881384    13
CTC2_L_00400004-01
1 10012U 22478FX  26075.70045139  .00000000  00000+0  00000-0 0  9995
2 10012  70.0000  36.0000 0000000   0.0000  36.0000 12.77881384    11
CTC2_L_00400004-02
1 10013U 26046ZO  26075.70045139  .00000000  00000+0  00000-0 0  9991
2 10013  70.0000  36.0000 0000000   0.0000 126.0000 12.77881384    12
CTC2_L_00400004-03
1 10014U 24475QY  26075.70045139  .00000000  00000+0  00000-0 0  9996
2 10014  70.0000  36.0000 0000000   0.0000 216.0000 12.77881384    13
CTC2_L_00400004-04
1 10015U 26012CG  26075.70045139  .00000000  00000+0  00000-0 0  9996
2 10015  70.0000  36.0000 0000000   0.0000 306.0000 12.77881384    14
CTC2_L_00400005-01
1 10016U 23213RI  26075.70045139  .00000000  00000+0  00000-0 0  9997
2 10016  70.0000  48.0000 0000000   0.0000  48.0000 12.77881384    11
CTC2_L_00400005-02
1 10017U 26992WQ  26075.70045139  .00000000  00000+0  00000-0 0  9995
2 10017  70.0000  48.0000 0000000   0.0000 138.0000 12.77881384    12
CTC2_L_00400005-03
1 10018U 25929EG  26075.70045139  .00000000  00000+0  00000-0 0  9995
2 10018  70.0000  48.0000 0000000   0.0000 228.0000 12.77881384    13
CTC2_L_00400005-04
1 10019U 26657SO  26075.70045139  .00000000  00000+0  00000-0 0  9995
2 10019  70.0000  48.0000 0000000   0.0000 318.0000 12.77881384    14
CTC2_L_00400006-01
1 10020U 24456DF  26075.70045139  .00000000  00000+0  00000-0 0  9992
2 10020  70.0000  60.0000 0000000   0.0000  60.0000 12.77881384    14
CTC2_L_00400006-02
1 10021U 22350HQ  26075.70045139  .00000000  00000+0  00000-0 0  9994
2 10021  70.0000  60.0000 0000000   0.0000 150.0000 12.77881384    15
CTC2_L_00400006-03
1 10022U 23799SV  26075.70045139  .00000000  00000+0  00000-0 0  9993
2 10022  70.0000  60.0000 0000000   0.0000 240.0000 12.77881384    16
CTC2_L_00400006-04
1 10023U 26780OF  26075.70045139  .00000000  00000+0  00000-0 0  9997
2 10023  70.0000  60.0000 0000000   0.0000 330.0000 12.77881384    17
CTC2_L_00400007-01
1 10024U 22666BR  26075.70045139  .00000000  00000+0  00000-0 0  9997
2 10024  70.0000  72.0000 0000000   0.0000  72.0000 12.77881384    14
CTC2_L_00400007-02
1 10025U 25746DT  26075.70045139  .00000000  00000+0  00000-0 0  9990
2 10025  70.0000  72.0000 0000000   0.0000 162.0000 12.77881384    15
CTC2_L_00400007-03
1 10026U 23156JY  26075.70045139  .00000000  00000+0  00000-0 0  9994
2 10026  70.0000  72.0000 0000000   0.0000 252.0000 12.77881384    16
CTC2_L_00400007-04
1 10027U 22502ML  26075.70045139  .00000000  00000+0  00000-0 0  9999
2 10027  70.0000  72.0000 0000000   0.0000 342.0000 12.77881384    17
CTC2_L_00400008-01
1 10028U 24449QC  26075.70045139  .00000000  00000+0  00000-0 0  9992
2 10028  70.0000  84.0000 0000000   0.0000  84.0000 12.77881384    14
CTC2_L_00400008-02
1 10029U 25867QZ  26075.70045139  .00000000  00000+0  00000-0 0  9998
2 10029  70.0000  84.0000 0000000   0.0000 174.0000 12.77881384    15
CTC2_L_00400008-03
1 10030U 26527CM  26075.70045139  .00000000  00000+0  00000-0 0  9994
2 10030  70.0000  84.0000 0000000   0.0000 264.0000 12.77881384    17
CTC2_L_00400008-04
1 10031U 23374QJ  26075.70045139  .00000000  00000+0  00000-0 0  9992
2 10031  70.0000  84.0000 0000000   0.0000 354.0000 12.77881384    18
CTC2_L_00400009-01
1 10032U 22169CL  26075.70045139  .00000000  00000+0  00000-0 0  9994
2 10032  70.0000  96.0000 0000000   0.0000  96.0000 12.77881384    15
CTC2_L_00400009-02
1 10033U 22475LS  26075.70045139  .00000000  00000+0  00000-0 0  9995
2 10033  70.0000  96.0000 0000000   0.0000 186.0000 12.77881384    16
CTC2_L_00400009-03
1 10034U 25395AM  26075.70045139  .00000000  00000+0  00000-0 0  9990
2 10034  70.0000  96.0000 0000000   0.0000 276.0000 12.77881384    17
CTC2_L_00400009-04
1 10035U 23006FQ  26075.70045139  .00000000  00000+0  00000-0 0  9998
2 10035  70.0000  96.0000 0000000   0.0000   6.0000 12.77881384    19
CTC2_L_00400010-01
1 10036U 24412DH  26075.70045139  .00000000  00000+0  00000-0 0  9991
2 10036  70.0000 108.0000 0000000   0.0000 108.0000 12.77881384    17
CTC2_L_00400010-02
1 10037U 26711MK  26075.70045139  .00000000  00000+0  00000-0 0  9996
2 10037  70.0000 108.0000 0000000   0.0000 198.0000 12.77881384    17
CTC2_L_00400010-03
1 10038U 23406ZF  26075.70045139  .00000000  00000+0  00000-0 0  9995
2 10038  70.0000 108.0000 0000000   0.0000 288.0000 12.77881384    18
CTC2_L_00400010-04
1 10039U 24260CF  26075.70045139  .00000000  00000+0  00000-0 0  9995
2 10039  70.0000 108.0000 0000000   0.0000  18.0000 12.77881384    10
CTC2_L_00400011-01
1 10040U 23060PS  26075.70045139  .00000000  00000+0  00000-0 0  9994
2 10040  70.0000 120.0000 0000000   0.0000 120.0000 12.77881384    10
CTC2_L_00400011-02
1 10041U 24182BR  26075.70045139  .00000000  00000+0  00000-0 0  9991
2 10041  70.0000 120.0000 0000000   0.0000 210.0000 12.77881384    11
CTC2_L_00400011-03
1 10042U 24140OS  26075.70045139  .00000000  00000+0  00000-0 0  9996
2 10042  70.0000 120.0000 0000000   0.0000 300.0000 12.77881384    12
CTC2_L_00400011-04
1 10043U 26790PT  26075.70045139  .00000000  00000+0  00000-0 0  9990
2 10043  70.0000 120.0000 0000000   0.0000  30.0000 12.77881384    13
CTC2_L_00400012-01
1 10044U 26320SS  26075.70045139  .00000000  00000+0  00000-0 0  9990
2 10044  70.0000 132.0000 0000000   0.0000 132.0000 12.77881384    10
CTC2_L_00400012-02
1 10045U 24714WY  26075.70045139  .00000000  00000+0  00000-0 0  9996
2 10045  70.0000 132.0000 0000000   0.0000 222.0000 12.77881384    11
CTC2_L_00400012-03
1 10046U 23557HY  26075.70045139  .00000000  00000+0  00000-0 0  9991
2 10046  70.0000 132.0000 0000000   0.0000 312.0000 12.77881384    12
CTC2_L_00400012-04
1 10047U 22986GQ  26075.70045139  .00000000  00000+0  00000-0 0  9997
2 10047  70.0000 132.0000 0000000   0.0000  42.0000 12.77881384    13
CTC2_L_00400013-01
1 10048U 25535TS  26075.70045139  .00000000  00000+0  00000-0 0  9991
2 10048  70.0000 144.0000 0000000   0.0000 144.0000 12.77881384    10
CTC2_L_00400013-02
1 10049U 24429IF  26075.70045139  .00000000  00000+0  00000-0 0  9993
2 10049  70.0000 144.0000 0000000   0.0000 234.0000 12.77881384    11
CTC2_L_00400013-03
1 10050U 24206AK  26075.70045139  .00000000  00000+0  00000-0 0  9998
2 10050  70.0000 144.0000 0000000   0.0000 324.0000 12.77881384    13
CTC2_L_00400013-04
1 10051U 24760II  26075.70045139  .00000000  00000+0  00000-0 0  9994
2 10051  70.0000 144.0000 0000000   0.0000  54.0000 12.77881384    14
CTC2_L_00400014-01
1 10052U 23149YR  26075.70045139  .00000000  00000+0  00000-0 0  9995
2 10052  70.0000 156.0000 0000000   0.0000 156.0000 12.77881384    11
CTC2_L_00400014-02
1 10053U 22352NN  26075.70045139  .00000000  00000+0  00000-0 0  9991
2 10053  70.0000 156.0000 0000000   0.0000 246.0000 12.77881384    12
CTC2_L_00400014-03
1 10054U 24121IB  26075.70045139  .00000000  00000+0  00000-0 0  9998
2 10054  70.0000 156.0000 0000000   0.0000 336.0000 12.77881384    13
CTC2_L_00400014-04
1 10055U 24586ZR  26075.70045139  .00000000  00000+0  00000-0 0  9994
2 10055  70.0000 156.0000 0000000   0.0000  66.0000 12.77881384    14
CTC2_L_00400015-01
1 10056U 25503FZ  26075.70045139  .00000000  00000+0  00000-0 0  9995
2 10056  70.0000 168.0000 0000000   0.0000 168.0000 12.77881384    11
CTC2_L_00400015-02
1 10057U 26271NE  26075.70045139  .00000000  00000+0  00000-0 0  9999
2 10057  70.0000 168.0000 0000000   0.0000 258.0000 12.77881384    12
CTC2_L_00400015-03
1 10058U 26347VM  26075.70045139  .00000000  00000+0  00000-0 0  9994
2 10058  70.0000 168.0000 0000000   0.0000 348.0000 12.77881384    13
CTC2_L_00400015-04
1 10059U 25594AQ  26075.70045139  .00000000  00000+0  00000-0 0  9998
2 10059  70.0000 168.0000 0000000   0.0000  78.0000 12.77881384    14
CTC2_L_00400016-01
1 10060U 24269WR  26075.70045139  .00000000  00000+0  00000-0 0  9998
2 10060  70.0000 180.0000 0000000   0.0000 180.0000 12.77881384    14
CTC2_L_00400016-02
1 10061U 24330NE  26075.70045139  .00000000  00000+0  00000-0 0  9998
2 10061  70.0000 180.0000 0000000   0.0000 270.0000 12.77881384    15
